[
    {
        "Altitude(m)": 576596.4561645712,
        "Argument of Periapsis(deg)": 0.0,
        "Eccentricity": 0.0,
        "Inclination(deg)": 97.0,
        "Latitude(deg)": 78.42288808121428,
        "Longitude(deg)": -76.56105007278792,
        "Mean Anomaly(deg)": 80.68969999999999,
        "RAAN(deg)": 60.0,
        "Satellite Name": "Starlink Shell 3 1713",
        "Satellite Number": 1713,
        "Semi-Major Axis(m)": 6938478.169268562,
        "Time(s)": 0
    },
    {
        "Altitude(m)": 576644.2240864988,
        "Argument of Periapsis(deg)": -0.0003965466804030246,
        "Eccentricity": 0.0,
        "Inclination(deg)": 97.0,
        "Latitude(deg)": 78.91284635799087,
        "Longitude(deg)": -78.55879446202013,
        "Mean Anomaly(deg)": 81.31517619770503,
        "RAAN(deg)": 60.000104334274006,
        "Satellite Name": "Starlink Shell 3 1713",
        "Satellite Number": 1713,
        "Semi-Major Axis(m)": 6938478.169268562,
        "Time(s)": 10
    },
    {
        "Altitude(m)": 576688.7958263459,
        "Argument of Periapsis(deg)": -0.0007930933608060492,
        "Eccentricity": 0.0,
        "Inclination(deg)": 97.0,
        "Latitude(deg)": 79.38904499344598,
        "Longitude(deg)": -80.73231513960238,
        "Mean Anomaly(deg)": 81.94065239541011,
        "RAAN(deg)": 60.00020866854802,
        "Satellite Name": "Starlink Shell 3 1713",
        "Satellite Number": 1713,
        "Semi-Major Axis(m)": 6938478.169268562,
        "Time(s)": 20
    },
    {
        "Altitude(m)": 576730.1462492183,
        "Argument of Periapsis(deg)": -0.001189640041209074,
        "Eccentricity": 0.0,
        "Inclination(deg)": 97.0,
        "Latitude(deg)": 79.84955243525943,
        "Longitude(deg)": -83.10023289077107,
        "Mean Anomaly(deg)": 82.56612859311511,
        "RAAN(deg)": 60.00031300282202,
        "Satellite Name": "Starlink Shell 3 1713",
        "Satellite Number": 1713,
        "Semi-Major Axis(m)": 6938478.169268562,
        "Time(s)": 30
    },
    {
        "Altitude(m)": 576768.2520488995,
        "Argument of Periapsis(deg)": -0.0015861867216120985,
        "Eccentricity": 0.0,
        "Inclination(deg)": 97.0,
        "Latitude(deg)": 80.29214046074337,
        "Longitude(deg)": -85.68223446981476,
        "Mean Anomaly(deg)": 83.1916047908202,
        "RAAN(deg)": 60.000417337096025,
        "Satellite Name": "Starlink Shell 3 1713",
        "Satellite Number": 1713,
        "Semi-Major Axis(m)": 6938478.169268562,
        "Time(s)": 40
    },
    {
        "Altitude(m)": 576803.0917587617,
        "Argument of Periapsis(deg)": -0.0019827334020151234,
        "Eccentricity": 0.0,
        "Inclination(deg)": 97.0,
        "Latitude(deg)": 80.71425129109525,
        "Longitude(deg)": -88.49851457110454,
        "Mean Anomaly(deg)": 83.81708098852523,
        "RAAN(deg)": 60.00052167137004,
        "Satellite Name": "Starlink Shell 3 1713",
        "Satellite Number": 1713,
        "Semi-Major Axis(m)": 6938478.169268562,
        "Time(s)": 50
    },
    {
        "Altitude(m)": 576834.6457618836,
        "Argument of Periapsis(deg)": -0.002379280082418148,
        "Eccentricity": 0.0,
        "Inclination(deg)": 97.0,
        "Latitude(deg)": 81.11297125441024,
        "Longitude(deg)": -91.56885865394212,
        "Mean Anomaly(deg)": 84.44255718623026,
        "RAAN(deg)": 60.00062600564405,
        "Satellite Name": "Starlink Shell 3 1713",
        "Satellite Number": 1713,
        "Semi-Major Axis(m)": 6938478.169268562,
        "Time(s)": 60
    },
    {
        "Altitude(m)": 576862.8963001936,
        "Argument of Periapsis(deg)": -0.002775826762821173,
        "Eccentricity": 0.0,
        "Inclination(deg)": 97.0,
        "Latitude(deg)": 81.48501823188427,
        "Longitude(deg)": -94.91125965092337,
        "Mean Anomaly(deg)": 85.06803338393533,
        "RAAN(deg)": 60.00073033991806,
        "Satellite Name": "Starlink Shell 3 1713",
        "Satellite Number": 1713,
        "Semi-Major Axis(m)": 6938478.169268562,
        "Time(s)": 70
    },
    {
        "Altitude(m)": 576887.8274828406,
        "Argument of Periapsis(deg)": -0.003172373443224197,
        "Eccentricity": 0.0,
        "Inclination(deg)": 97.0,
        "Latitude(deg)": 81.82675304379926,
        "Longitude(deg)": -98.53997862579442,
        "Mean Anomaly(deg)": 85.69350958164034,
        "RAAN(deg)": 60.00083467419207,
        "Satellite Name": "Starlink Shell 3 1713",
        "Satellite Number": 1713,
        "Semi-Major Axis(m)": 6938478.169268562,
        "Time(s)": 80
    },
    {
        "Altitude(m)": 576909.4252936147,
        "Argument of Periapsis(deg)": -0.0035689201236272223,
        "Eccentricity": 0.0,
        "Inclination(deg)": 97.0,
        "Latitude(deg)": 82.13422765181623,
        "Longitude(deg)": -102.46301951710035,
        "Mean Anomaly(deg)": 86.31898577934538,
        "RAAN(deg)": 60.00093900846607,
        "Satellite Name": "Starlink Shell 3 1713",
        "Satellite Number": 1713,
        "Semi-Major Axis(m)": 6938478.169268562,
        "Time(s)": 90
    },
    {
        "Altitude(m)": 576927.6775975258,
        "Argument of Periapsis(deg)": -0.003965466804030247,
        "Eccentricity": 0.0,
        "Inclination(deg)": 97.0,
        "Latitude(deg)": 82.40328428091907,
        "Longitude(deg)": -106.67912927105782,
        "Mean Anomaly(deg)": 86.94446197705042,
        "RAAN(deg)": 60.00104334274008,
        "Satellite Name": "Starlink Shell 3 1713",
        "Satellite Number": 1713,
        "Semi-Major Axis(m)": 6938478.169268562,
        "Time(s)": 100
    },
    {
        "Altitude(m)": 576942.5741464744,
        "Argument of Periapsis(deg)": -0.004362013484433271,
        "Eccentricity": 0.0,
        "Inclination(deg)": 97.0,
        "Latitude(deg)": 82.6297172559893,
        "Longitude(deg)": -111.17465460110705,
        "Mean Anomaly(deg)": 87.56993817475548,
        "RAAN(deg)": 60.00114767701409,
        "Satellite Name": "Starlink Shell 3 1713",
        "Satellite Number": 1713,
        "Semi-Major Axis(m)": 6938478.169268562,
        "Time(s)": 110
    },
    {
        "Altitude(m)": 576954.1065840576,
        "Argument of Periapsis(deg)": -0.004758560164836296,
        "Eccentricity": 0.0,
        "Inclination(deg)": 97.0,
        "Latitude(deg)": 82.80950117778333,
        "Longitude(deg)": -115.92085601886068,
        "Mean Anomaly(deg)": 88.19541437246053,
        "RAAN(deg)": 60.0012520112881,
        "Satellite Name": "Starlink Shell 3 1713",
        "Satellite Number": 1713,
        "Semi-Major Axis(m)": 6938478.169268562,
        "Time(s)": 120
    },
    {
        "Altitude(m)": 576962.2684494847,
        "Argument of Periapsis(deg)": -0.005155106845239321,
        "Eccentricity": 0.0,
        "Inclination(deg)": 97.0,
        "Latitude(deg)": 82.9390737769445,
        "Longitude(deg)": -120.87251373393796,
        "Mean Anomaly(deg)": 88.82089057016559,
        "RAAN(deg)": 60.00135634556211,
        "Satellite Name": "Starlink Shell 3 1713",
        "Satellite Number": 1713,
        "Semi-Major Axis(m)": 6938478.169268562,
        "Time(s)": 130
    },
    {
        "Altitude(m)": 576967.0551805885,
        "Argument of Periapsis(deg)": -0.005551653525642346,
        "Eccentricity": 0.0,
        "Inclination(deg)": 97.0,
        "Latitude(deg)": 83.01564134277282,
        "Longitude(deg)": -125.96868015868904,
        "Mean Anomaly(deg)": 89.44636676787061,
        "RAAN(deg)": 60.00146067983612,
        "Satellite Name": "Starlink Shell 3 1713",
        "Satellite Number": 1713,
        "Semi-Major Axis(m)": 6938478.169268562,
        "Time(s)": 140
    },
    {
        "Altitude(m)": 576968.464115957,
        "Argument of Periapsis(deg)": -0.005948200206045371,
        "Eccentricity": 0.0,
        "Inclination(deg)": 97.0,
        "Latitude(deg)": 83.03745576597237,
        "Longitude(deg)": -131.13608440013954,
        "Mean Anomaly(deg)": 90.07184296557567,
        "RAAN(deg)": 60.00156501411012,
        "Satellite Name": "Starlink Shell 3 1713",
        "Satellite Number": 1713,
        "Semi-Major Axis(m)": 6938478.169268562,
        "Time(s)": 150
    },
    {
        "Altitude(m)": 576966.4944961919,
        "Argument of Periapsis(deg)": -0.006344746886448394,
        "Eccentricity": 0.0,
        "Inclination(deg)": 97.0,
        "Latitude(deg)": 83.00400507616372,
        "Longitude(deg)": -136.29498400124635,
        "Mean Anomaly(deg)": 90.69731916328071,
        "RAAN(deg)": 60.001669348384134,
        "Satellite Name": "Starlink Shell 3 1713",
        "Satellite Number": 1713,
        "Semi-Major Axis(m)": 6938478.169268562,
        "Time(s)": 160
    },
    {
        "Altitude(m)": 576961.1474642415,
        "Argument of Periapsis(deg)": -0.00674129356685142,
        "Eccentricity": 0.0,
        "Inclination(deg)": 97.0,
        "Latitude(deg)": 82.91607178401442,
        "Longitude(deg)": -141.36642350426908,
        "Mean Anomaly(deg)": 91.32279536098574,
        "RAAN(deg)": 60.00177368265814,
        "Satellite Name": "Starlink Shell 3 1713",
        "Satellite Number": 1713,
        "Semi-Major Axis(m)": 6938478.169268562,
        "Time(s)": 170
    },
    {
        "Altitude(m)": 576952.4260648667,
        "Argument of Periapsis(deg)": -0.007137840247254445,
        "Eccentricity": 0.0,
        "Inclination(deg)": 97.0,
        "Latitude(deg)": 82.77564417609369,
        "Longitude(deg)": -146.27931643068942,
        "Mean Anomaly(deg)": 91.94827155869079,
        "RAAN(deg)": 60.00187801693215,
        "Satellite Name": "Starlink Shell 3 1713",
        "Satellite Number": 1713,
        "Semi-Major Axis(m)": 6938478.169268562,
        "Time(s)": 180
    }
]